IRIDIUM 106             
1 41917U 17003A   23286.63854153  .00000565  00000+0  19463-3 0  9990
2 41917  86.3963 137.0926 0001894  89.5409 270.6003 14.34218409353098
IRIDIUM 103             
1 41918U 17003B   23286.83516115  .00000589  00000+0  20337-3 0  9994
2 41918  86.3964 136.9131 0001982  77.1085 283.0332 14.34218203353148
IRIDIUM 109             
1 41919U 17003C   23286.84150662  .00000683  00000+0  23671-3 0  9996
2 41919  86.3965 136.9535 0002307  82.2584 277.8874 14.34219169353112
IRIDIUM 102             
1 41920U 17003D   23287.29815118  .00000588  00000+0  20299-3 0  9999
2 41920  86.3961 136.7072 0002233  85.4965 274.6486 14.34226205353269
IRIDIUM 105             
1 41921U 17003E   23286.98975663  .00000296  00000+0  98655-4 0  9995
2 41921  86.3920 105.2501 0002007  87.4397 272.7029 14.34222193355078
IRIDIUM 104             
1 41922U 17003F   23286.82247261  .00000474  00000+0  16203-3 0  9991
2 41922  86.3966 136.9340 0002124  80.8701 279.2735 14.34219171353185
IRIDIUM 114             
1 41923U 17003G   23286.82881614  .00000651  00000+0  22534-3 0  9999
2 41923  86.3965 136.9178 0001925  94.8136 265.3280 14.34216683353163
IRIDIUM 108             
1 41924U 17003H   23287.41525706  .00000061  00000+0  14773-4 0  9995
2 41924  86.3914 105.0128 0001740  91.3746 268.7649 14.34216702355120
